{"type":"FeatureCollection","features":[{"type":"Feature","name":"ShapeMeta","geometry":{"type":"LineString","coordinates":[[6.102061,49.58565],[6.101538,49.58554]]},"properties":{"name":"Rue Jean-Pierre Thoma","highway":"residential","maxspeed":"30","profile":"car","distance":"39.59446","time":"6.335114"}},{"type":"Feature","name":"ShapeMeta","geometry":{"type":"LineString","coordinates":[[6.101538,49.58554],[6.101492,49.58558]]},"properties":{"name":"Rue Jean-Pierre Thoma","oneway":"yes","highway":"residential","maxspeed":"30","profile":"car","distance":"44.89446","time":"7.183114"}},{"type":"Feature","name":"ShapeMeta","geometry":{"type":"LineString","coordinates":[[6.101492,49.58558],[6.101438,49.58559],[6.101359,49.58558],[6.101305,49.58553],[6.101305,49.5855],[6.101373,49.58545],[6.101429,49.58544],[6.101516,49.58546],[6.101532,49.58548]]},"properties":{"name":"Rue Jean-Pierre Thoma","oneway":"yes","highway":"residential","maxspeed":"30","profile":"car","distance":"86.59446","time":"13.85511"}},{"type":"Feature","name":"ShapeMeta","geometry":{"type":"LineString","coordinates":[[6.101532,49.58548],[6.101545,49.58551],[6.101538,49.58554]]},"properties":{"name":"Rue Jean-Pierre Thoma","oneway":"yes","highway":"residential","maxspeed":"30","profile":"car","distance":"93.89446","time":"15.02311"}},{"type":"Feature","name":"ShapeMeta","geometry":{"type":"LineString","coordinates":[[6.101538,49.58554],[6.102316,49.5857],[6.102387,49.5857],[6.10245,49.58569],[6.10249,49.58565],[6.102907,49.58488]]},"properties":{"name":"Rue Jean-Pierre Thoma","highway":"residential","maxspeed":"30","profile":"car","distance":"258.3945","time":"41.34311"}},{"type":"Feature","name":"ShapeMeta","geometry":{"type":"LineString","coordinates":[[6.102907,49.58488],[6.103719,49.58513],[6.104544,49.58527]]},"properties":{"name":"Kohlenberg","highway":"residential","maxspeed":"30","profile":"car","distance":"384.4945","time":"61.51911"}},{"type":"Feature","name":"ShapeMeta","geometry":{"type":"LineString","coordinates":[[6.104544,49.58527],[6.105147,49.58536],[6.1057,49.58549]]},"properties":{"name":"Kohlenberg","highway":"residential","maxspeed":"30","profile":"car","distance":"471.6945","time":"75.47112"}},{"type":"Feature","name":"ShapeMeta","geometry":{"type":"LineString","coordinates":[[6.1057,49.58549],[6.106543,49.58572],[6.107293,49.58593],[6.107548,49.58601]]},"properties":{"name":"Kohlenberg","highway":"residential","maxspeed":"30","profile":"car","distance":"616.6945","time":"98.67113"}},{"type":"Feature","name":"ShapeMeta","geometry":{"type":"LineString","coordinates":[[6.107548,49.58601],[6.1078,49.58612]]},"properties":{"name":"Kohlenberg","highway":"residential","maxspeed":"30","profile":"car","distance":"638.5945","time":"102.1751"}},{"type":"Feature","name":"ShapeMeta","geometry":{"type":"LineString","coordinates":[[6.1078,49.58612],[6.107288,49.58657],[6.107222,49.58662],[6.107137,49.58664],[6.107044,49.58665],[6.106953,49.58663],[6.106318,49.58646]]},"properties":{"name":"Rue Nicolas Gredt","highway":"residential","maxspeed":"30","profile":"car","distance":"777.2861","time":"124.3658"}},{"type":"Feature","name":"ShapeMeta","geometry":{"type":"LineString","coordinates":[[6.106318,49.58646],[6.105555,49.58627],[6.105464,49.58623],[6.105402,49.58617],[6.105378,49.58611],[6.105394,49.58604],[6.1057,49.58549]]},"properties":{"name":"Rue Nicolas Gredt","highway":"residential","maxspeed":"30","profile":"car","distance":"931.5945","time":"149.0551"}},{"type":"Feature","name":"ShapeMeta","geometry":{"type":"LineString","coordinates":[[6.1057,49.58549],[6.106543,49.58572],[6.107293,49.58593],[6.107548,49.58601]]},"properties":{"name":"Kohlenberg","highway":"residential","maxspeed":"30","profile":"car","distance":"1076.594","time":"172.2552"}},{"type":"Feature","name":"ShapeMeta","geometry":{"type":"LineString","coordinates":[[6.107548,49.58601],[6.1078,49.58612]]},"properties":{"name":"Kohlenberg","highway":"residential","maxspeed":"30","profile":"car","distance":"1098.495","time":"175.7592"}},{"type":"Feature","name":"ShapeMeta","geometry":{"type":"LineString","coordinates":[[6.1078,49.58612],[6.108617,49.58662],[6.108716,49.58668]]},"properties":{"name":"Kohlenberg","highway":"residential","maxspeed":"30","profile":"car","distance":"1188.995","time":"190.2392"}},{"type":"Feature","name":"ShapeMeta","geometry":{"type":"LineString","coordinates":[[6.108716,49.58668],[6.108652,49.58676],[6.107895,49.58769]]},"properties":{"name":"Rue Tubis","highway":"residential","maxspeed":"30","profile":"car","distance":"1315.994","time":"210.5591"}},{"type":"Feature","name":"ShapeMeta","geometry":{"type":"LineString","coordinates":[[6.107895,49.58769],[6.107327,49.58826],[6.107117,49.58847],[6.107071,49.58849],[6.106933,49.58854]]},"properties":{"name":"Rue Tubis","highway":"residential","maxspeed":"30","profile":"car","distance":"1434.794","time":"229.5672"}},{"type":"Feature","name":"ShapeMeta","geometry":{"type":"LineString","coordinates":[[6.106933,49.58854],[6.106951,49.58865],[6.106906,49.58876],[6.106788,49.58905]]},"properties":{"name":"Rue de Cessange","maxspeed":"50","highway":"secondary","profile":"car","distance":"1492.395","time":"235.0968"}},{"type":"Feature","name":"ShapeMeta","geometry":{"type":"LineString","coordinates":[[6.106788,49.58905],[6.107004,49.58908],[6.107892,49.58922],[6.108067,49.58925]]},"properties":{"name":"Rue Verte","maxspeed":"50","highway":"tertiary","profile":"car","distance":"1587.294","time":"244.2072"}},{"type":"Feature","name":"ShapeMeta","geometry":{"type":"LineString","coordinates":[[6.108067,49.58925],[6.108029,49.58934],[6.107853,49.58977]]},"properties":{"name":"Rue Saint-Joseph","highway":"residential","maxspeed":"30","profile":"car","distance":"1647.4","time":"253.8241"}},{"type":"Feature","name":"ShapeMeta","geometry":{"type":"LineString","coordinates":[[6.107853,49.58977],[6.107707,49.59013],[6.107652,49.59017],[6.107576,49.59019],[6.106443,49.59009],[6.1063,49.59007]]},"properties":{"name":"Rue Saint-Joseph","highway":"residential","maxspeed":"30","profile":"car","distance":"1793.494","time":"277.1992"}},{"type":"Feature","name":"ShapeMeta","geometry":{"type":"LineString","coordinates":[[6.1063,49.59007],[6.106558,49.58952],[6.106674,49.58928],[6.106705,49.5892]]},"properties":{"name":"Rue de Cessange","maxspeed":"50","highway":"secondary","profile":"car","distance":"1894.494","time":"286.8951"}},{"type":"Feature","name":"ShapeMeta","geometry":{"type":"LineString","coordinates":[[6.106705,49.5892],[6.106788,49.58905]]},"properties":{"name":"Rue de Cessange","maxspeed":"50","highway":"secondary","profile":"car","distance":"1912.794","time":"288.6519"}},{"type":"Feature","name":"ShapeMeta","geometry":{"type":"LineString","coordinates":[[6.106788,49.58905],[6.107004,49.58908],[6.107892,49.58922],[6.108067,49.58925]]},"properties":{"name":"Rue Verte","maxspeed":"50","highway":"tertiary","profile":"car","distance":"2007.694","time":"297.7624"}},{"type":"Feature","name":"ShapeMeta","geometry":{"type":"LineString","coordinates":[[6.108067,49.58925],[6.10886,49.58938],[6.109175,49.58943],[6.10945,49.5895],[6.110471,49.58995],[6.11068,49.59003]]},"properties":{"name":"Rue Verte","maxspeed":"50","highway":"tertiary","profile":"car","distance":"2217.694","time":"317.9224"}},{"type":"Feature","name":"ShapeMeta","geometry":{"type":"LineString","coordinates":[[6.11068,49.59003],[6.11112,49.59013],[6.111693,49.59023],[6.112607,49.59034],[6.113151,49.59039],[6.113704,49.5904],[6.11419,49.59039]]},"properties":{"name":"Rue Verte","maxspeed":"50","highway":"tertiary","profile":"car","distance":"2475.794","time":"342.7"}},{"type":"Feature","name":"ShapeMeta","geometry":{"type":"LineString","coordinates":[[6.11419,49.59039],[6.114853,49.59035],[6.115164,49.59032],[6.115382,49.59026]]},"properties":{"name":"Rue Verte","maxspeed":"50","highway":"tertiary","profile":"car","distance":"2563.494","time":"351.1191"}},{"type":"Feature","name":"ShapeMeta","geometry":{"type":"LineString","coordinates":[[6.115382,49.59026],[6.115456,49.5902],[6.115519,49.59012],[6.115604,49.58995],[6.115695,49.58985],[6.115841,49.58977]]},"properties":{"name":"Rue Verte","maxspeed":"50","highway":"tertiary","profile":"car","distance":"2628.794","time":"357.3879"}},{"type":"Feature","name":"ShapeMeta","geometry":{"type":"LineString","coordinates":[[6.115841,49.58977],[6.116006,49.58977],[6.116258,49.58976],[6.116443,49.58977]]},"properties":{"name":"Kohlenberg","maxspeed":"50","highway":"tertiary","profile":"car","distance":"2672.194","time":"361.5543"}},{"type":"Feature","name":"ShapeMeta","geometry":{"type":"LineString","coordinates":[[6.116443,49.58977],[6.116625,49.58978],[6.116782,49.58976],[6.117438,49.58971]]},"properties":{"name":"Rue Christophe Plantin","maxspeed":"50","highway":"unclassified","profile":"car","distance":"2744.294","time":"368.4759"}},{"type":"Feature","name":"ShapeMeta","geometry":{"type":"LineString","coordinates":[[6.117438,49.58971],[6.117581,49.5897]]},"properties":{"name":"Rue Christophe Plantin","maxspeed":"50","highway":"unclassified","profile":"car","distance":"2754.594","time":"369.4647"}},{"type":"Feature","name":"ShapeMeta","geometry":{"type":"LineString","coordinates":[[6.117581,49.5897],[6.117596,49.58979],[6.117717,49.59064],[6.117655,49.59069]]},"properties":{"name":"Rue Ludwig van Beethoven","oneway":"yes","highway":"residential","maxspeed":"30","profile":"car","distance":"2866.394","time":"387.3527"}},{"type":"Feature","name":"ShapeMeta","geometry":{"type":"LineString","coordinates":[[6.117655,49.59069],[6.117676,49.59078]]},"properties":{"name":"Rue Ludwig van Beethoven","highway":"residential","maxspeed":"30","profile":"car","distance":"2876.194","time":"388.9207"}},{"type":"Feature","name":"ShapeMeta","geometry":{"type":"LineString","coordinates":[[6.117676,49.59078],[6.117744,49.59105],[6.117824,49.59133]]},"properties":{"name":"Rue Ludwig van Beethoven","highway":"residential","maxspeed":"30","profile":"car","distance":"2938.194","time":"398.8407"}},{"type":"Feature","name":"ShapeMeta","geometry":{"type":"LineString","coordinates":[[6.117824,49.59133],[6.118441,49.59128]]},"properties":{"name":"Rue Jacques Lamort","highway":"residential","maxspeed":"30","profile":"car","distance":"2982.904","time":"405.9942"}},{"type":"Feature","name":"ShapeMeta","geometry":{"type":"LineString","coordinates":[[6.118441,49.59128],[6.11876,49.59126]]},"properties":{"name":"Rue Jacques Lamort","highway":"residential","maxspeed":"30","profile":"car","distance":"3005.994","time":"409.6887"}},{"type":"Feature","name":"ShapeMeta","geometry":{"type":"LineString","coordinates":[[6.11876,49.59126],[6.118951,49.59126]]},"properties":{"name":"Rue Jacques Lamort","highway":"residential","maxspeed":"30","profile":"car","distance":"3019.794","time":"411.8967"}},{"type":"Feature","name":"ShapeMeta","geometry":{"type":"LineString","coordinates":[[6.118951,49.59126],[6.119053,49.59113],[6.119156,49.59101],[6.119127,49.59089],[6.119042,49.59066]]},"properties":{"highway":"track","profile":"car","distance":"3090.494","time":"423.2086"}},{"type":"Feature","name":"ShapeMeta","geometry":{"type":"LineString","coordinates":[[6.119042,49.59066],[6.118733,49.5907],[6.118257,49.59075],[6.117676,49.59078]]},"properties":{"name":"Rue Louis de Froment","oneway":"yes","highway":"residential","maxspeed":"30","profile":"car","distance":"3189.994","time":"439.1287"}},{"type":"Feature","name":"ShapeMeta","geometry":{"type":"LineString","coordinates":[[6.117676,49.59078],[6.117655,49.59069]]},"properties":{"name":"Rue Ludwig van Beethoven","highway":"residential","maxspeed":"30","profile":"car","distance":"3199.794","time":"440.6967"}},{"type":"Feature","name":"ShapeMeta","geometry":{"type":"LineString","coordinates":[[6.117655,49.59069],[6.117603,49.59065],[6.117461,49.58981],[6.117438,49.58971]]},"properties":{"name":"Rue Ludwig van Beethoven","oneway":"yes","highway":"residential","maxspeed":"30","profile":"car","distance":"3310.395","time":"458.3927"}},{"type":"Feature","name":"ShapeMeta","geometry":{"type":"LineString","coordinates":[[6.117438,49.58971],[6.117581,49.5897]]},"properties":{"name":"Rue Christophe Plantin","maxspeed":"50","highway":"unclassified","profile":"car","distance":"3320.694","time":"459.3815"}},{"type":"Feature","name":"ShapeMeta","geometry":{"type":"LineString","coordinates":[[6.117581,49.5897],[6.118335,49.58965]]},"properties":{"name":"Rue Christophe Plantin","maxspeed":"50","highway":"unclassified","profile":"car","distance":"3375.395","time":"464.6327"}},{"type":"Feature","name":"ShapeMeta","geometry":{"type":"LineString","coordinates":[[6.118335,49.58965],[6.118604,49.58962]]},"properties":{"name":"Rue Christophe Plantin","maxspeed":"50","highway":"unclassified","profile":"car","distance":"3394.895","time":"466.5047"}},{"type":"Feature","name":"ShapeMeta","geometry":{"type":"LineString","coordinates":[[6.118604,49.58962],[6.118805,49.58961]]},"properties":{"name":"Rue Christophe Plantin","maxspeed":"50","highway":"unclassified","profile":"car","distance":"3409.395","time":"467.8967"}},{"type":"Feature","name":"ShapeMeta","geometry":{"type":"LineString","coordinates":[[6.118805,49.58961],[6.118917,49.5896],[6.119217,49.58953],[6.119406,49.58942],[6.120303,49.58868]]},"properties":{"name":"Rue Christophe Plantin","maxspeed":"50","highway":"unclassified","profile":"car","distance":"3563.694","time":"482.7095"}},{"type":"Feature","name":"ShapeMeta","geometry":{"type":"LineString","coordinates":[[6.120303,49.58868],[6.119367,49.58821],[6.119296,49.58817],[6.119266,49.5881],[6.119257,49.58803],[6.11929,49.58796],[6.119998,49.58738]]},"properties":{"name":"Rue Fran√ßois Hogenberg","maxspeed":"50","highway":"unclassified","profile":"car","distance":"3761.395","time":"501.6887"}},{"type":"Feature","name":"ShapeMeta","geometry":{"type":"LineString","coordinates":[[6.119998,49.58738],[6.121149,49.58796]]},"properties":{"highway":"service","profile":"car","distance":"3866.395","time":"518.4887"}},{"type":"Feature","name":"ShapeMeta","geometry":{"type":"LineString","coordinates":[[6.121149,49.58796],[6.121118,49.58799],[6.120867,49.5882]]},"properties":{"name":"Rue Christophe Plantin","maxspeed":"50","highway":"unclassified","profile":"car","distance":"3899.541","time":"521.6707"}},{"type":"Feature","name":"Stop","Shape":"0","geometry":{"type":"Point","coordinates":[6.102068,49.58562]},"properties":{"index":"0","distance":"0","time":"0","stop":"0"}},{"type":"Feature","name":"Stop","Shape":"31","geometry":{"type":"Point","coordinates":[6.106317,49.58646]},"properties":{"index":"1","distance":"777.2861","time":"124.3658","stop":"1"}},{"type":"Feature","name":"Stop","Shape":"57","geometry":{"type":"Point","coordinates":[6.107841,49.58977]},"properties":{"index":"2","distance":"1647.4","time":"253.8241","stop":"2"}},{"type":"Feature","name":"Stop","Shape":"102","geometry":{"type":"Point","coordinates":[6.118441,49.59127]},"properties":{"index":"3","distance":"2982.904","time":"405.9942","stop":"3"}},{"type":"Feature","name":"Stop","Shape":"132","geometry":{"type":"Point","coordinates":[6.120844,49.58817]},"properties":{"index":"4","distance":"3899.541","time":"521.6707","stop":"4"}}]}